{
  "type": "FeatureCollection",
  "features": [
    {
      "type": "Feature",
      "properties": {
        "norad_id": 66901,
        "name": "STARLINK-36043",
        "group": "last-30-days",
        "lat": 0.15043511734598417,
        "lon": -115.76523116420725,
        "alt_km": 301.47355128937215,
        "timestamp": "2025-12-14T14:39:28.134383+00:00",
        "meta_object_name": "STARLINK-36043",
        "meta_object_id": "2025-283Z",
        "meta_epoch": "2025-12-13T20:00:03.000384",
        "meta_mean_motion": 15.92974163,
        "meta_eccentricity": 0.00010435,
        "meta_inclination": 53.1543,
        "meta_ra_of_asc_node": 68.3081,
        "meta_arg_of_pericenter": 47.8531,
        "meta_mean_anomaly": 354.5068,
        "meta_ephemeris_type": 0,
        "meta_classification_type": "U",
        "meta_norad_cat_id": 66901,
        "meta_element_set_no": 999,
        "meta_rev_at_epoch": 260,
        "meta_bstar": -0.0044225758,
        "meta_mean_motion_dot": -0.01574377,
        "meta_mean_motion_ddot": 0.00070590452,
        "tle_line1": "1 66901U 25283Z   25347.83336806 -.01574377  70590-3 -44226-2 0  9990",
        "tle_line2": "2 66901  53.1543  68.3081 0001043  47.8531 354.5068 15.92974163  2603"
      },
      "geometry": {
        "type": "Point",
        "coordinates": [
          -115.76523116420725,
          0.15043511734598417
        ]
      }
    },
    {
      "type": "Feature",
      "properties": {
        "norad_id": 66902,
        "name": "STARLINK-35983",
        "group": "last-30-days",
        "lat": -2.135468614989675,
        "lon": -114.05567662434584,
        "alt_km": 302.01353236682553,
        "timestamp": "2025-12-14T14:39:28.134395+00:00",
        "meta_object_name": "STARLINK-35983",
        "meta_object_id": "2025-283AA",
        "meta_epoch": "2025-12-13T20:00:03.000384",
        "meta_mean_motion": 15.9303436,
        "meta_eccentricity": 7.882e-05,
        "meta_inclination": 53.154,
        "meta_ra_of_asc_node": 68.3027,
        "meta_arg_of_pericenter": 56.7331,
        "meta_mean_anomaly": 348.3975,
        "meta_ephemeris_type": 0,
        "meta_classification_type": "U",
        "meta_norad_cat_id": 66902,
        "meta_element_set_no": 999,
        "meta_rev_at_epoch": 260,
        "meta_bstar": -0.0045159905,
        "meta_mean_motion_dot": -0.01612174,
        "meta_mean_motion_ddot": 0.00073774581,
        "tle_line1": "1 66902U 25283AA  25347.83336806 -.01612174  73775-3 -45160-2 0  9995",
        "tle_line2": "2 66902  53.1540  68.3027 0000788  56.7331 348.3975 15.93034360  2608"
      },
      "geometry": {
        "type": "Point",
        "coordinates": [
          -114.05567662434584,
          -2.135468614989675
        ]
      }
    },
    {
      "type": "Feature",
      "properties": {
        "norad_id": 66903,
        "name": "STARLINK-36077",
        "group": "last-30-days",
        "lat": -3.9801066902451177,
        "lon": -112.67216273644594,
        "alt_km": 302.185060493518,
        "timestamp": "2025-12-14T14:39:28.134407+00:00",
        "meta_object_name": "STARLINK-36077",
        "meta_object_id": "2025-283AB",
        "meta_epoch": "2025-12-13T20:00:03.000384",
        "meta_mean_motion": 15.93080365,
        "meta_eccentricity": 8.231e-05,
        "meta_inclination": 53.1544,
        "meta_ra_of_asc_node": 68.2979,
        "meta_arg_of_pericenter": 59.2733,
        "meta_mean_anomaly": 348.0661,
        "meta_ephemeris_type": 0,
        "meta_classification_type": "U",
        "meta_norad_cat_id": 66903,
        "meta_element_set_no": 999,
        "meta_rev_at_epoch": 260,
        "meta_bstar": -0.0045474803,
        "meta_mean_motion_dot": -0.01627146,
        "meta_mean_motion_ddot": 0.00075071843,
        "tle_line1": "1 66903U 25283AB  25347.83336806 -.01627146  75072-3 -45475-2 0  9992",
        "tle_line2": "2 66903  53.1544  68.2979 0000823  59.2733 348.0661 15.93080365  2607"
      },
      "geometry": {
        "type": "Point",
        "coordinates": [
          -112.67216273644594,
          -3.9801066902451177
        ]
      }
    },
    {
      "type": "Feature",
      "properties": {
        "norad_id": 66904,
        "name": "STARLINK-36059",
        "group": "last-30-days",
        "lat": -5.931874448827923,
        "lon": -111.19940708268695,
        "alt_km": 302.3202343680805,
        "timestamp": "2025-12-14T14:39:28.134417+00:00",
        "meta_object_name": "STARLINK-36059",
        "meta_object_id": "2025-283AC",
        "meta_epoch": "2025-12-13T20:00:03.000384",
        "meta_mean_motion": 15.93119809,
        "meta_eccentricity": 7.731e-05,
        "meta_inclination": 53.154,
        "meta_ra_of_asc_node": 68.2929,
        "meta_arg_of_pericenter": 59.9129,
        "meta_mean_anomaly": 349.7692,
        "meta_ephemeris_type": 0,
        "meta_classification_type": "U",
        "meta_norad_cat_id": 66904,
        "meta_element_set_no": 999,
        "meta_rev_at_epoch": 260,
        "meta_bstar": -0.0045486901,
        "meta_mean_motion_dot": -0.01630899,
        "meta_mean_motion_ddot": 0.00075419768,
        "tle_line1": "1 66904U 25283AC  25347.83336806 -.01630899  75420-3 -45487-2 0  9992",
        "tle_line2": "2 66904  53.1540  68.2929 0000773  59.9129 349.7692 15.93119809  2607"
      },
      "geometry": {
        "type": "Point",
        "coordinates": [
          -111.19940708268695,
          -5.931874448827923
        ]
      }
    },
    {
      "type": "Feature",
      "properties": {
        "norad_id": 66905,
        "name": "STARLINK-36075",
        "group": "last-30-days",
        "lat": -7.618024720873927,
        "lon": -109.91629008500148,
        "alt_km": 302.49902414047665,
        "timestamp": "2025-12-14T14:39:28.134427+00:00",
        "meta_object_name": "STARLINK-36075",
        "meta_object_id": "2025-283AD",
        "meta_epoch": "2025-12-13T20:00:03.000384",
        "meta_mean_motion": 15.93164933,
        "meta_eccentricity": 9.28e-05,
        "meta_inclination": 53.1543,
        "meta_ra_of_asc_node": 68.2887,
        "meta_arg_of_pericenter": 63.6148,
        "meta_mean_anomaly": 348.0873,
        "meta_ephemeris_type": 0,
        "meta_classification_type": "U",
        "meta_norad_cat_id": 66905,
        "meta_element_set_no": 999,
        "meta_rev_at_epoch": 260,
        "meta_bstar": -0.0045820566,
        "meta_mean_motion_dot": -0.01646574,
        "meta_mean_motion_ddot": 0.00076791643,
        "tle_line1": "1 66905U 25283AD  25347.83336806 -.01646574  76792-3 -45821-2 0  9995",
        "tle_line2": "2 66905  53.1543  68.2887 0000928  63.6148 348.0873 15.93164933  2600"
      },
      "geometry": {
        "type": "Point",
        "coordinates": [
          -109.91629008500148,
          -7.618024720873927
        ]
      }
    },
    {
      "type": "Feature",
      "properties": {
        "norad_id": 66906,
        "name": "1998-067XS",
        "group": "last-30-days",
        "lat": 47.33854687185565,
        "lon": -167.57315970583673,
        "alt_km": 410.0535355383945,
        "timestamp": "2025-12-14T14:39:28.134439+00:00",
        "meta_object_name": "1998-067XS",
        "meta_object_id": "1998-067XS",
        "meta_epoch": "2025-12-13T19:47:52.336320",
        "meta_mean_motion": 15.50642629,
        "meta_eccentricity": 0.00035104,
        "meta_inclination": 51.6303,
        "meta_ra_of_asc_node": 137.0364,
        "meta_arg_of_pericenter": 208.0686,
        "meta_mean_anomaly": 152.0114,
        "meta_ephemeris_type": 0,
        "meta_classification_type": "U",
        "meta_norad_cat_id": 66906,
        "meta_element_set_no": 999,
        "meta_rev_at_epoch": 178,
        "meta_bstar": 0.00053972464,
        "meta_mean_motion_dot": 0.00031181,
        "meta_mean_motion_ddot": 0,
        "tle_line1": "1 66906U 98067XS  25347.82491130  .00031181  00000+0  53972-3 0  9998",
        "tle_line2": "2 66906  51.6303 137.0364 0003510 208.0686 152.0114 15.50642629  1780"
      },
      "geometry": {
        "type": "Point",
        "coordinates": [
          -167.57315970583673,
          47.33854687185565
        ]
      }
    },
    {
      "type": "Feature",
      "properties": {
        "norad_id": 66907,
        "name": "1998-067XT",
        "group": "last-30-days",
        "lat": 51.58599050152631,
        "lon": -134.51526525004638,
        "alt_km": 406.97810587421463,
        "timestamp": "2025-12-14T14:39:28.134449+00:00",
        "meta_object_name": "1998-067XT",
        "meta_object_id": "1998-067XT",
        "meta_epoch": "2025-12-13T16:37:31.235232",
        "meta_mean_motion": 15.51604707,
        "meta_eccentricity": 0.00043667,
        "meta_inclination": 51.6303,
        "meta_ra_of_asc_node": 137.6541,
        "meta_arg_of_pericenter": 232.3065,
        "meta_mean_anomaly": 127.7529,
        "meta_ephemeris_type": 0,
        "meta_classification_type": "U",
        "meta_norad_cat_id": 66907,
        "meta_element_set_no": 999,
        "meta_rev_at_epoch": 176,
        "meta_bstar": 0.0011074189,
        "meta_mean_motion_dot": 0.00067037,
        "meta_mean_motion_ddot": 0,
        "tle_line1": "1 66907U 98067XT  25347.69272263  .00067037  00000+0  11074-2 0  9993",
        "tle_line2": "2 66907  51.6303 137.6541 0004366 232.3065 127.7529 15.51604707  1768"
      },
      "geometry": {
        "type": "Point",
        "coordinates": [
          -134.51526525004638,
          51.58599050152631
        ]
      }
    }
  ]
}